{
  "type": "FeatureCollection",
  "features": [
    {
      "type": "Feature",
      "properties": {
        "norad_id": 41599,
        "name": "CARTOSAT-2C",
        "group": "resource",
        "lat": -43.30380275156924,
        "lon": -135.32998669016615,
        "alt_km": 522.5952749068747,
        "timestamp": "2025-12-20T14:38:01.615846+00:00",
        "meta_object_name": "CARTOSAT-2C",
        "meta_object_id": "2016-040A",
        "meta_epoch": "2025-12-20T07:19:45.209568",
        "meta_mean_motion": 15.19180308,
        "meta_eccentricity": 0.00110355,
        "meta_inclination": 97.4762,
        "meta_ra_of_asc_node": 51.4784,
        "meta_arg_of_pericenter": 39.4646,
        "meta_mean_anomaly": 320.739,
        "meta_ephemeris_type": 0,
        "meta_classification_type": "U",
        "meta_norad_cat_id": 41599,
        "meta_element_set_no": 999,
        "meta_rev_at_epoch": 52655,
        "meta_bstar": 0.00021915656,
        "meta_mean_motion_dot": 4.548e-05,
        "meta_mean_motion_ddot": 0,
        "tle_line1": "1 41599U 16040A   25354.30538437  .00004548  00000+0  21916-3 0  9993",
        "tle_line2": "2 41599  97.4762  51.4784 0011035  39.4646 320.7390 15.19180308526559"
      },
      "geometry": {
        "type": "Point",
        "coordinates": [
          -135.32998669016615,
          -43.30380275156924
        ]
      }
    },
    {
      "type": "Feature",
      "properties": {
        "norad_id": 41601,
        "name": "SKYSAT-C1",
        "group": "resource",
        "lat": -60.31767805856657,
        "lon": 43.59504053303401,
        "alt_km": 474.1706820242389,
        "timestamp": "2025-12-20T14:38:01.615856+00:00",
        "meta_object_name": "SKYSAT-C1",
        "meta_object_id": "2016-040C",
        "meta_epoch": "2025-12-19T13:49:47.529120",
        "meta_mean_motion": 15.32708118,
        "meta_eccentricity": 0.000158,
        "meta_inclination": 96.9813,
        "meta_ra_of_asc_node": 30.2048,
        "meta_arg_of_pericenter": 351.0695,
        "meta_mean_anomaly": 9.052,
        "meta_ephemeris_type": 0,
        "meta_classification_type": "U",
        "meta_norad_cat_id": 41601,
        "meta_element_set_no": 999,
        "meta_rev_at_epoch": 53032,
        "meta_bstar": 0.00021842,
        "meta_mean_motion_dot": 6.827e-05,
        "meta_mean_motion_ddot": 0,
        "tle_line1": "1 41601U 16040C   25353.57624455  .00006827  00000+0  21842-3 0  9991",
        "tle_line2": "2 41601  96.9813  30.2048 0001580 351.0695   9.0520 15.32708118530325"
      },
      "geometry": {
        "type": "Point",
        "coordinates": [
          43.59504053303401,
          -60.31767805856657
        ]
      }
    },
    {
      "type": "Feature",
      "properties": {
        "norad_id": 41603,
        "name": "LAPAN-A3",
        "group": "resource",
        "lat": 51.805455244615594,
        "lon": -17.291219405970345,
        "alt_km": 468.3892783177607,
        "timestamp": "2025-12-20T14:38:01.615867+00:00",
        "meta_object_name": "LAPAN-A3",
        "meta_object_id": "2016-040E",
        "meta_epoch": "2025-12-20T06:33:57.368160",
        "meta_mean_motion": 15.31608118,
        "meta_eccentricity": 0.00089586,
        "meta_inclination": 97.1424,
        "meta_ra_of_asc_node": 351.5558,
        "meta_arg_of_pericenter": 303.2976,
        "meta_mean_anomaly": 56.7407,
        "meta_ephemeris_type": 0,
        "meta_classification_type": "U",
        "meta_norad_cat_id": 41603,
        "meta_element_set_no": 999,
        "meta_rev_at_epoch": 52741,
        "meta_bstar": 9.2724034e-05,
        "meta_mean_motion_dot": 2.759e-05,
        "meta_mean_motion_ddot": 0,
        "tle_line1": "1 41603U 16040E   25354.27358065  .00002759  00000+0  92724-4 0  9990",
        "tle_line2": "2 41603  97.1424 351.5558 0008958 303.2976  56.7407 15.31608118527417"
      },
      "geometry": {
        "type": "Point",
        "coordinates": [
          -17.291219405970345,
          51.805455244615594
        ]
      }
    },
    {
      "type": "Feature",
      "properties": {
        "norad_id": 41604,
        "name": "BIROS",
        "group": "resource",
        "lat": 56.418632730578906,
        "lon": -142.8524197329271,
        "alt_km": 287.17372179764516,
        "timestamp": "2025-12-20T14:38:01.615877+00:00",
        "meta_object_name": "BIROS",
        "meta_object_id": "2016-040F",
        "meta_epoch": "2025-12-20T02:03:19.975968",
        "meta_mean_motion": 15.92485134,
        "meta_eccentricity": 0.00035333,
        "meta_inclination": 97.0689,
        "meta_ra_of_asc_node": 25.8273,
        "meta_arg_of_pericenter": 132.86,
        "meta_mean_anomaly": 227.2973,
        "meta_ephemeris_type": 0,
        "meta_classification_type": "U",
        "meta_norad_cat_id": 41604,
        "meta_element_set_no": 999,
        "meta_rev_at_epoch": 52989,
        "meta_bstar": 0.00048137558,
        "meta_mean_motion_dot": 0.00161911,
        "meta_mean_motion_ddot": 1.1712005e-05,
        "tle_line1": "1 41604U 16040F   25354.08564787  .00161911  11712-4  48138-3 0  9992",
        "tle_line2": "2 41604  97.0689  25.8273 0003533 132.8600 227.2973 15.92485134529894"
      },
      "geometry": {
        "type": "Point",
        "coordinates": [
          -142.8524197329271,
          56.418632730578906
        ]
      }
    },
    {
      "type": "Feature",
      "properties": {
        "norad_id": 41727,
        "name": "GAOFEN-3",
        "group": "resource",
        "lat": -2.186023698053337,
        "lon": 179.75298067899712,
        "alt_km": 754.9443590340588,
        "timestamp": "2025-12-20T14:38:01.615888+00:00",
        "meta_object_name": "GAOFEN-3",
        "meta_object_id": "2016-049A",
        "meta_epoch": "2025-12-20T07:07:55.010208",
        "meta_mean_motion": 14.4221557,
        "meta_eccentricity": 0.00012542,
        "meta_inclination": 98.4031,
        "meta_ra_of_asc_node": 359.7685,
        "meta_arg_of_pericenter": 57.3396,
        "meta_mean_anomaly": 302.7915,
        "meta_ephemeris_type": 0,
        "meta_classification_type": "U",
        "meta_norad_cat_id": 41727,
        "meta_element_set_no": 999,
        "meta_rev_at_epoch": 49286,
        "meta_bstar": 4.4302391e-05,
        "meta_mean_motion_dot": 1.03e-06,
        "meta_mean_motion_ddot": 0,
        "tle_line1": "1 41727U 16049A   25354.29716447  .00000103  00000+0  44302-4 0  9990",
        "tle_line2": "2 41727  98.4031 359.7685 0001254  57.3396 302.7915 14.42215570492863"
      },
      "geometry": {
        "type": "Point",
        "coordinates": [
          179.75298067899712,
          -2.186023698053337
        ]
      }
    },
    {
      "type": "Feature",
      "properties": {
        "norad_id": 41771,
        "name": "SKYSAT-C4",
        "group": "resource",
        "lat": 31.038891419614046,
        "lon": -156.38333130793248,
        "alt_km": 435.90863485394493,
        "timestamp": "2025-12-20T14:38:01.615898+00:00",
        "meta_object_name": "SKYSAT-C4",
        "meta_object_id": "2016-058B",
        "meta_epoch": "2025-12-20T01:32:08.921760",
        "meta_mean_motion": 15.42446541,
        "meta_eccentricity": 0.00021513,
        "meta_inclination": 96.936,
        "meta_ra_of_asc_node": 18.8961,
        "meta_arg_of_pericenter": 129.4309,
        "meta_mean_anomaly": 230.7131,
        "meta_ephemeris_type": 0,
        "meta_classification_type": "U",
        "meta_norad_cat_id": 41771,
        "meta_element_set_no": 999,
        "meta_rev_at_epoch": 51780,
        "meta_bstar": 0.00023477482,
        "meta_mean_motion_dot": 0.00010079,
        "meta_mean_motion_ddot": 0,
        "tle_line1": "1 41771U 16058B   25354.06399215  .00010079  00000+0  23477-3 0  9996",
        "tle_line2": "2 41771  96.9360  18.8961 0002151 129.4309 230.7131 15.42446541517809"
      },
      "geometry": {
        "type": "Point",
        "coordinates": [
          -156.38333130793248,
          31.038891419614046
        ]
      }
    },
    {
      "type": "Feature",
      "properties": {
        "norad_id": 41772,
        "name": "SKYSAT-C5",
        "group": "resource",
        "lat": -9.630446984120683,
        "lon": -143.1745078718261,
        "alt_km": 467.08760287569476,
        "timestamp": "2025-12-20T14:38:01.615909+00:00",
        "meta_object_name": "SKYSAT-C5",
        "meta_object_id": "2016-058C",
        "meta_epoch": "2025-12-20T02:51:02.337120",
        "meta_mean_motion": 15.34000367,
        "meta_eccentricity": 0.00037831,
        "meta_inclination": 97.0747,
        "meta_ra_of_asc_node": 37.5626,
        "meta_arg_of_pericenter": 257.0702,
        "meta_mean_anomaly": 103.0119,
        "meta_ephemeris_type": 0,
        "meta_classification_type": "U",
        "meta_norad_cat_id": 41772,
        "meta_element_set_no": 999,
        "meta_rev_at_epoch": 51629,
        "meta_bstar": 0.0001953125,
        "meta_mean_motion_dot": 6.351e-05,
        "meta_mean_motion_ddot": 0,
        "tle_line1": "1 41772U 16058C   25354.11877705  .00006351  00000+0  19531-3 0  9992",
        "tle_line2": "2 41772  97.0747  37.5626 0003783 257.0702 103.0119 15.34000367516297"
      },
      "geometry": {
        "type": "Point",
        "coordinates": [
          -143.1745078718261,
          -9.630446984120683
        ]
      }
    }
  ]
}